IRIDIUM 166             
1 43570U 18061B   24188.91197343 -.00000001  00000+0 -73039-5 0  9994
2 43570  86.3981 353.5650 0002368  94.7472 265.3994 14.34218082311595
IRIDIUM 158             
1 43571U 18061C   24188.88025908  .00000069  00000+0  17617-4 0  9999
2 43571  86.3979 353.5875 0002235  88.8618 271.2834 14.34217074311556
IRIDIUM 165             
1 43572U 18061D   24189.18470519  .00000068  00000+0  17223-4 0  9998
2 43572  86.3982 353.4932 0002258  88.5071 271.6383 14.34217815311623
IRIDIUM 155             
1 43573U 18061E   24188.93734468  .00000350  00000+0  11795-3 0  9998
2 43573  86.3978 353.5008 0002391  93.2520 266.8949 14.34215840311556
IRIDIUM 154             
1 43574U 18061F   24188.91831663  .00000359  00000+0  12107-3 0  9999
2 43574  86.3982 353.6073 0001883  91.1065 269.0346 14.34217959311606
IRIDIUM 163             
1 43575U 18061G   24188.89928751 -.00000043  00000+0 -22471-4 0  9990
2 43575  86.3980 353.5530 0002132  92.5136 267.6304 14.34217835311571
IRIDIUM 156             
1 43576U 18061H   24188.94368644  .00000062  00000+0  15081-4 0  9994
2 43576  86.3980 353.5407 0002304  88.4597 271.6863 14.34217561311572
IRIDIUM 164             
1 43577U 18061J   24188.92465833  .00000161  00000+0  50369-4 0  9999
2 43577  86.3981 353.5779 0002059  83.2387 276.9043 14.34217864311612
