<?xml version="1.0" encoding="UTF-8"?>
<ndm xmlns:xsi="http://www.w3.org/2001/XMLSchema-instance" xsi:noNamespaceSchemaLocation="https://sanaregistry.org/r/ndmxml_unqualified/ndmxml-2.0.0-master-2.0.xsd">
<omm id="CCSDS_OMM_VERS" version="2.0">
<header><CREATION_DATE/><ORIGINATOR/></header><body><segment><metadata><OBJECT_NAME>IRIDIUM 166</OBJECT_NAME><OBJECT_ID>2018-061B</OBJECT_ID><CENTER_NAME>EARTH</CENTER_NAME><REF_FRAME>TEME</REF_FRAME><TIME_SYSTEM>UTC</TIME_SYSTEM><MEAN_ELEMENT_THEORY>SGP4</MEAN_ELEMENT_THEORY></metadata><data><meanElements><EPOCH>2024-07-06T21:53:14.504352</EPOCH><MEAN_MOTION>14.34218082</MEAN_MOTION><ECCENTRICITY>.0002368</ECCENTRICITY><INCLINATION>86.3981</INCLINATION><RA_OF_ASC_NODE>353.5650</RA_OF_ASC_NODE><ARG_OF_PERICENTER>94.7472</ARG_OF_PERICENTER><MEAN_ANOMALY>265.3994</MEAN_ANOMALY></meanElements><tleParameters><EPHEMERIS_TYPE>0</EPHEMERIS_TYPE><CLASSIFICATION_TYPE>U</CLASSIFICATION_TYPE><NORAD_CAT_ID>43570</NORAD_CAT_ID><ELEMENT_SET_NO>999</ELEMENT_SET_NO><REV_AT_EPOCH>31159</REV_AT_EPOCH><BSTAR>-.73039E-5</BSTAR><MEAN_MOTION_DOT>-.1E-7</MEAN_MOTION_DOT><MEAN_MOTION_DDOT>0</MEAN_MOTION_DDOT></tleParameters></data></segment></body></omm>
<omm id="CCSDS_OMM_VERS" version="2.0">
<header><CREATION_DATE/><ORIGINATOR/></header><body><segment><metadata><OBJECT_NAME>IRIDIUM 158</OBJECT_NAME><OBJECT_ID>2018-061C</OBJECT_ID><CENTER_NAME>EARTH</CENTER_NAME><REF_FRAME>TEME</REF_FRAME><TIME_SYSTEM>UTC</TIME_SYSTEM><MEAN_ELEMENT_THEORY>SGP4</MEAN_ELEMENT_THEORY></metadata><data><meanElements><EPOCH>2024-07-06T21:07:34.384512</EPOCH><MEAN_MOTION>14.34217074</MEAN_MOTION><ECCENTRICITY>.0002235</ECCENTRICITY><INCLINATION>86.3979</INCLINATION><RA_OF_ASC_NODE>353.5875</RA_OF_ASC_NODE><ARG_OF_PERICENTER>88.8618</ARG_OF_PERICENTER><MEAN_ANOMALY>271.2834</MEAN_ANOMALY></meanElements><tleParameters><EPHEMERIS_TYPE>0</EPHEMERIS_TYPE><CLASSIFICATION_TYPE>U</CLASSIFICATION_TYPE><NORAD_CAT_ID>43571</NORAD_CAT_ID><ELEMENT_SET_NO>999</ELEMENT_SET_NO><REV_AT_EPOCH>31155</REV_AT_EPOCH><BSTAR>.17617E-4</BSTAR><MEAN_MOTION_DOT>.69E-6</MEAN_MOTION_DOT><MEAN_MOTION_DDOT>0</MEAN_MOTION_DDOT></tleParameters></data></segment></body></omm>
<omm id="CCSDS_OMM_VERS" version="2.0">
<header><CREATION_DATE/><ORIGINATOR/></header><body><segment><metadata><OBJECT_NAME>IRIDIUM 165</OBJECT_NAME><OBJECT_ID>2018-061D</OBJECT_ID><CENTER_NAME>EARTH</CENTER_NAME><REF_FRAME>TEME</REF_FRAME><TIME_SYSTEM>UTC</TIME_SYSTEM><MEAN_ELEMENT_THEORY>SGP4</MEAN_ELEMENT_THEORY></metadata><data><meanElements><EPOCH>2024-07-07T04:25:58.528416</EPOCH><MEAN_MOTION>14.34217815</MEAN_MOTION><ECCENTRICITY>.0002258</ECCENTRICITY><INCLINATION>86.3982</INCLINATION><RA_OF_ASC_NODE>353.4932</RA_OF_ASC_NODE><ARG_OF_PERICENTER>88.5071</ARG_OF_PERICENTER><MEAN_ANOMALY>271.6383</MEAN_ANOMALY></meanElements><tleParameters><EPHEMERIS_TYPE>0</EPHEMERIS_TYPE><CLASSIFICATION_TYPE>U</CLASSIFICATION_TYPE><NORAD_CAT_ID>43572</NORAD_CAT_ID><ELEMENT_SET_NO>999</ELEMENT_SET_NO><REV_AT_EPOCH>31162</REV_AT_EPOCH><BSTAR>.17223E-4</BSTAR><MEAN_MOTION_DOT>.68E-6</MEAN_MOTION_DOT><MEAN_MOTION_DDOT>0</MEAN_MOTION_DDOT></tleParameters></data></segment></body></omm>
<omm id="CCSDS_OMM_VERS" version="2.0">
<header><CREATION_DATE/><ORIGINATOR/></header><body><segment><metadata><OBJECT_NAME>IRIDIUM 155</OBJECT_NAME><OBJECT_ID>2018-061E</OBJECT_ID><CENTER_NAME>EARTH</CENTER_NAME><REF_FRAME>TEME</REF_FRAME><TIME_SYSTEM>UTC</TIME_SYSTEM><MEAN_ELEMENT_THEORY>SGP4</MEAN_ELEMENT_THEORY></metadata><data><meanElements><EPOCH>2024-07-06T22:29:46.580352</EPOCH><MEAN_MOTION>14.34215840</MEAN_MOTION><ECCENTRICITY>.0002391</ECCENTRICITY><INCLINATION>86.3978</INCLINATION><RA_OF_ASC_NODE>353.5008</RA_OF_ASC_NODE><ARG_OF_PERICENTER>93.2520</ARG_OF_PERICENTER><MEAN_ANOMALY>266.8949</MEAN_ANOMALY></meanElements><tleParameters><EPHEMERIS_TYPE>0</EPHEMERIS_TYPE><CLASSIFICATION_TYPE>U</CLASSIFICATION_TYPE><NORAD_CAT_ID>43573</NORAD_CAT_ID><ELEMENT_SET_NO>999</ELEMENT_SET_NO><REV_AT_EPOCH>31155</REV_AT_EPOCH><BSTAR>.11795E-3</BSTAR><MEAN_MOTION_DOT>.35E-5</MEAN_MOTION_DOT><MEAN_MOTION_DDOT>0</MEAN_MOTION_DDOT></tleParameters></data></segment></body></omm>
<omm id="CCSDS_OMM_VERS" version="2.0">
<header><CREATION_DATE/><ORIGINATOR/></header><body><segment><metadata><OBJECT_NAME>IRIDIUM 154</OBJECT_NAME><OBJECT_ID>2018-061F</OBJECT_ID><CENTER_NAME>EARTH</CENTER_NAME><REF_FRAME>TEME</REF_FRAME><TIME_SYSTEM>UTC</TIME_SYSTEM><MEAN_ELEMENT_THEORY>SGP4</MEAN_ELEMENT_THEORY></metadata><data><meanElements><EPOCH>2024-07-06T22:02:22.556832</EPOCH><MEAN_MOTION>14.34217959</MEAN_MOTION><ECCENTRICITY>.0001883</ECCENTRICITY><INCLINATION>86.3982</INCLINATION><RA_OF_ASC_NODE>353.6073</RA_OF_ASC_NODE><ARG_OF_PERICENTER>91.1065</ARG_OF_PERICENTER><MEAN_ANOMALY>269.0346</MEAN_ANOMALY></meanElements><tleParameters><EPHEMERIS_TYPE>0</EPHEMERIS_TYPE><CLASSIFICATION_TYPE>U</CLASSIFICATION_TYPE><NORAD_CAT_ID>43574</NORAD_CAT_ID><ELEMENT_SET_NO>999</ELEMENT_SET_NO><REV_AT_EPOCH>31160</REV_AT_EPOCH><BSTAR>.12107E-3</BSTAR><MEAN_MOTION_DOT>.359E-5</MEAN_MOTION_DOT><MEAN_MOTION_DDOT>0</MEAN_MOTION_DDOT></tleParameters></data></segment></body></omm>
<omm id="CCSDS_OMM_VERS" version="2.0">
<header><CREATION_DATE/><ORIGINATOR/></header><body><segment><metadata><OBJECT_NAME>IRIDIUM 163</OBJECT_NAME><OBJECT_ID>2018-061G</OBJECT_ID><CENTER_NAME>EARTH</CENTER_NAME><REF_FRAME>TEME</REF_FRAME><TIME_SYSTEM>UTC</TIME_SYSTEM><MEAN_ELEMENT_THEORY>SGP4</MEAN_ELEMENT_THEORY></metadata><data><meanElements><EPOCH>2024-07-06T21:34:58.440864</EPOCH><MEAN_MOTION>14.34217835</MEAN_MOTION><ECCENTRICITY>.0002132</ECCENTRICITY><INCLINATION>86.3980</INCLINATION><RA_OF_ASC_NODE>353.5530</RA_OF_ASC_NODE><ARG_OF_PERICENTER>92.5136</ARG_OF_PERICENTER><MEAN_ANOMALY>267.6304</MEAN_ANOMALY></meanElements><tleParameters><EPHEMERIS_TYPE>0</EPHEMERIS_TYPE><CLASSIFICATION_TYPE>U</CLASSIFICATION_TYPE><NORAD_CAT_ID>43575</NORAD_CAT_ID><ELEMENT_SET_NO>999</ELEMENT_SET_NO><REV_AT_EPOCH>31157</REV_AT_EPOCH><BSTAR>-.22471E-4</BSTAR><MEAN_MOTION_DOT>-.43E-6</MEAN_MOTION_DOT><MEAN_MOTION_DDOT>0</MEAN_MOTION_DDOT></tleParameters></data></segment></body></omm>
<omm id="CCSDS_OMM_VERS" version="2.0">
<header><CREATION_DATE/><ORIGINATOR/></header><body><segment><metadata><OBJECT_NAME>IRIDIUM 156</OBJECT_NAME><OBJECT_ID>2018-061H</OBJECT_ID><CENTER_NAME>EARTH</CENTER_NAME><REF_FRAME>TEME</REF_FRAME><TIME_SYSTEM>UTC</TIME_SYSTEM><MEAN_ELEMENT_THEORY>SGP4</MEAN_ELEMENT_THEORY></metadata><data><meanElements><EPOCH>2024-07-06T22:38:54.508416</EPOCH><MEAN_MOTION>14.34217561</MEAN_MOTION><ECCENTRICITY>.0002304</ECCENTRICITY><INCLINATION>86.3980</INCLINATION><RA_OF_ASC_NODE>353.5407</RA_OF_ASC_NODE><ARG_OF_PERICENTER>88.4597</ARG_OF_PERICENTER><MEAN_ANOMALY>271.6863</MEAN_ANOMALY></meanElements><tleParameters><EPHEMERIS_TYPE>0</EPHEMERIS_TYPE><CLASSIFICATION_TYPE>U</CLASSIFICATION_TYPE><NORAD_CAT_ID>43576</NORAD_CAT_ID><ELEMENT_SET_NO>999</ELEMENT_SET_NO><REV_AT_EPOCH>31157</REV_AT_EPOCH><BSTAR>.15081E-4</BSTAR><MEAN_MOTION_DOT>.62E-6</MEAN_MOTION_DOT><MEAN_MOTION_DDOT>0</MEAN_MOTION_DDOT></tleParameters></data></segment></body></omm>
<omm id="CCSDS_OMM_VERS" version="2.0">
<header><CREATION_DATE/><ORIGINATOR/></header><body><segment><metadata><OBJECT_NAME>IRIDIUM 164</OBJECT_NAME><OBJECT_ID>2018-061J</OBJECT_ID><CENTER_NAME>EARTH</CENTER_NAME><REF_FRAME>TEME</REF_FRAME><TIME_SYSTEM>UTC</TIME_SYSTEM><MEAN_ELEMENT_THEORY>SGP4</MEAN_ELEMENT_THEORY></metadata><data><meanElements><EPOCH>2024-07-06T22:11:30.479712</EPOCH><MEAN_MOTION>14.34217864</MEAN_MOTION><ECCENTRICITY>.0002059</ECCENTRICITY><INCLINATION>86.3981</INCLINATION><RA_OF_ASC_NODE>353.5779</RA_OF_ASC_NODE><ARG_OF_PERICENTER>83.2387</ARG_OF_PERICENTER><MEAN_ANOMALY>276.9043</MEAN_ANOMALY></meanElements><tleParameters><EPHEMERIS_TYPE>0</EPHEMERIS_TYPE><CLASSIFICATION_TYPE>U</CLASSIFICATION_TYPE><NORAD_CAT_ID>43577</NORAD_CAT_ID><ELEMENT_SET_NO>999</ELEMENT_SET_NO><REV_AT_EPOCH>31161</REV_AT_EPOCH><BSTAR>.50369E-4</BSTAR><MEAN_MOTION_DOT>.161E-5</MEAN_MOTION_DOT><MEAN_MOTION_DDOT>0</MEAN_MOTION_DDOT></tleParameters></data></segment></body></omm>

</ndm>
